$$SOE
2461302.500000000, A.D. 2026-Sep-19 00:00:00.0000, -1.891749136857124E+08, 3.776707789101351E+08, -1.141987337028752E+07,
2461309.500000000, A.D. 2026-Sep-26 00:00:00.0000, -1.974839875455242E+08, 3.726912034355152E+08, -1.049504690539187E+07,
2461316.500000000, A.D. 2026-Oct-03 00:00:00.0000, -2.056656255067536E+08, 3.674708624385237E+08, -9.563422703360096E+06,
2461323.500000000, A.D. 2026-Oct-10 00:00:00.0000, -2.137138835781254E+08, 3.620119566707681E+08, -8.625572787182555E+06,
2461330.500000000, A.D. 2026-Oct-17 00:00:00.0000, -2.216227991511910E+08, 3.563167864139742E+08, -7.682077127373174E+06,
2461337.500000000, A.D. 2026-Oct-24 00:00:00.0000, -2.293863895271207E+08, 3.503877550551921E+08, -6.733523991135731E+06,
2461344.500000000, A.D. 2026-Oct-31 00:00:00.0000, -2.369986504755734E+08, 3.442273727386882E+08, -5.780510320539773E+06,
2461351.500000000, A.D. 2026-Nov-07 00:00:00.0000, -2.444535544969252E+08, 3.378382601743779E+08, -4.823642164227054E+06,
2461358.500000000, A.D. 2026-Nov-14 00:00:00.0000, -2.517450485988955E+08, 3.312231534962155E+08, -3.863535107969493E+06,
2461365.500000000, A.D. 2026-Nov-21 00:00:00.0000, -2.588670534135163E+08, 3.243849108601996E+08, -2.900814481720194E+06,
2461372.500000000, A.D. 2026-Nov-28 00:00:00.0000, -2.658134646660629E+08, 3.173265177834274E+08, -1.936115496948436E+06,
2461379.500000000, A.D. 2026-Dec-05 00:00:00.0000, -2.725781533881581E+08, 3.100510905731887E+08, -9.700836986670345E+05,
2461386.500000000, A.D. 2026-Dec-12 00:00:00.0000, -2.791549647276949E+08, 3.025618809619136E+08, -3.375491898551583E+03,
2461393.500000000, A.D. 2026-Dec-19 00:00:00.0000, -2.855377172627606E+08, 2.948622819647699E+08, 9.633414316533357E+05,
2461400.500000000, A.D. 2026-Dec-26 00:00:00.0000, -2.917202029789717E+08, 2.869558341014178E+08, 1.929387709822118E+06,
2461407.500000000, A.D. 2027-Jan-02 00:00:00.0000, -2.976961876514748E+08, 2.788462317969153E+08, 2.894071929568455E+06,
2461414.500000000, A.D. 2027-Jan-09 00:00:00.0000, -3.034594115345827E+08, 2.705373299852692E+08, 3.856690242405921E+06,
2461421.500000000, A.D. 2027-Jan-16 00:00:00.0000, -3.090035903483418E+08, 2.620331509266514E+08, 4.816525974724934E+06,
2461428.500000000, A.D. 2027-Jan-23 00:00:00.0000, -3.143224165459332E+08, 2.533378912019777E+08, 5.772849227107331E+06,
2461435.500000000, A.D. 2027-Jan-30 00:00:00.0000, -3.194095607074234E+08, 2.444559288427999E+08, 6.724916443059042E+06,
2461442.500000000, A.D. 2027-Feb-06 00:00:00.0000, -3.242586726690149E+08, 2.353918309433062E+08, 7.671969937683016E+06,
2461449.500000000, A.D. 2027-Feb-13 00:00:00.0000, -3.288633828822338E+08, 2.261503629792352E+08, 8.613237530089080E+06,
2461456.500000000, A.D. 2027-Feb-20 00:00:00.0000, -3.332173064034451E+08, 2.167364990458952E+08, 9.547932433721587E+06,
2461463.500000000, A.D. 2027-Feb-27 00:00:00.0000, -3.373140481545893E+08, 2.071554298032959E+08, 1.047525301628974E+07,
2461470.500000000, A.D. 2027-Mar-06 00:00:00.0000, -3.411472064724950E+08, 1.974125700456258E+08, 1.139438231260984E+07,
2461477.500000000, A.D. 2027-Mar-13 00:00:00.0000, -3.447103765909679E+08, 1.875135679342319E+08, 1.230448760777647E+07,
2461484.500000000, A.D. 2027-Mar-20 00:00:00.0000, -3.479971552372125E+08, 1.774643150519597E+08, 1.320472012939547E+07,
2461491.500000000, A.D. 2027-Mar-27 00:00:00.0000, -3.510011461935975E+08, 1.672709567220868E+08, 1.409421478959523E+07,
2461498.500000000, A.D. 2027-Apr-03 00:00:00.0000, -3.537159666762353E+08, 1.569399025322400E+08, 1.497208995910407E+07,
2461505.500000000, A.D. 2027-Apr-10 00:00:00.0000, -3.561352545263694E+08, 1.464778370702012E+08, 1.583744727498691E+07,
2461512.500000000, A.D. 2027-Apr-17 00:00:00.0000, -3.582526762527320E+08, 1.358917308365086E+08, 1.668937148468592E+07,
2461519.500000000, A.D. 2027-Apr-24 00:00:00.0000, -3.600619359088523E+08, 1.251888512455226E+08, 1.752693032040804E+07,
2461526.500000000, A.D. 2027-May-01 00:00:00.0000, -3.615567845717844E+08, 1.143767737104605E+08, 1.834917438563916E+07,
2461533.500000000, A.D. 2027-May-08 00:00:00.0000, -3.627310301836865E+08, 1.034633935213972E+08, 1.915513709436546E+07,
2461540.500000000, A.D. 2027-May-15 00:00:00.0000, -3.635785493256547E+08, 9.245693942207353E+07, 1.994383488644640E+07,
2461547.500000000, A.D. 2027-May-22 00:00:00.0000, -3.640933025661136E+08, 8.136598623891534E+07, 2.071426765976197E+07,
2461554.500000000, A.D. 2027-May-29 00:00:00.0000, -3.642693501078115E+08, 7.019946503318380E+07, 2.146541900140131E+07,
2461561.500000000, A.D. 2027-Jun-05 00:00:00.0000, -3.641008669234092E+08, 5.896667383559628E+07, 2.219625640352686E+07,
2461568.500000000, A.D. 2027-Jun-12 00:00:00.0000, -3.635821594648368E+08, 4.767728930708668E+07, 2.290573169460396E+07,
2461575.500000000, A.D. 2027-Jun-19 00:00:00.0000, -3.627076843615356E+08, 3.634137829215419E+07, 2.359278165212723E+07,
2461582.500000000, A.D. 2027-Jun-26 00:00:00.0000, -3.614720689109727E+08, 2.496940889471083E+07, 2.425632876317453E+07,
2461589.500000000, A.D. 2027-Jul-03 00:00:00.0000, -3.598701333077642E+08, 1.357226096134833E+07, 2.489528213553454E+07,
2461596.500000000, A.D. 2027-Jul-10 00:00:00.0000, -3.578969146492476E+08, 2.161235840975849E+06, 2.550853857165743E+07,
2461603.500000000, A.D. 2027-Jul-17 00:00:00.0000, -3.555476927512333E+08, -9.251934774647079E+06, 2.609498381455848E+07,
2461610.500000000, A.D. 2027-Jul-24 00:00:00.0000, -3.528180176809327E+08, -2.065508116641271E+07, 2.665349396249636E+07,
2461617.500000000, A.D. 2027-Jul-31 00:00:00.0000, -3.497037386497343E+08, -3.203558901639223E+07, 2.718293705078346E+07,
2461624.500000000, A.D. 2027-Aug-07 00:00:00.0000, -3.462010345082358E+08, -4.338039300969601E+07, 2.768217493040612E+07,
2461631.500000000, A.D. 2027-Aug-14 00:00:00.0000, -3.423064481723452E+08, -5.467597109636039E+07, 2.815006565104364E+07,
2461638.500000000, A.D. 2027-Aug-21 00:00:00.0000, -3.380169243767754E+08, -6.590834303199975E+07, 2.858546603444163E+07,
2461645.500000000, A.D. 2027-Aug-28 00:00:00.0000, -3.333298473200910E+08, -7.706307226527007E+07, 2.898723423981721E+07,
2461652.500000000, A.D. 2027-Sep-04 00:00:00.0000, -3.282430793464615E+08, -8.812526895747870E+07, 2.935423265136779E+07,
2461659.500000000, A.D. 2027-Sep-11 00:00:00.0000, -3.227550019908839E+08, -9.907959510358286E+07, 2.968533117735700E+07,
2461666.500000000, A.D. 2027-Sep-18 00:00:00.0000, -3.168645591547298E+08, -1.099102727297078E+08, 2.997941090944358E+07,
2461673.500000000, A.D. 2027-Sep-25 00:00:00.0000, -3.105713020420569E+08, -1.206010955805947E+08, 3.023536812687054E+07,
2461680.500000000, A.D. 2027-Oct-02 00:00:00.0000, -3.038754355903925E+08, -1.311354446171280E+08, 3.045211864952780E+07,
2461687.500000000, A.D. 2027-Oct-09 00:00:00.0000, -2.967778661324142E+08, -1.414963076902527E+08, 3.062860254272987E+07,
2461694.500000000, A.D. 2027-Oct-16 00:00:00.0000, -2.892802499384843E+08, -1.516663038154791E+08, 3.076378916610425E+07,
2461701.500000000, A.D. 2027-Oct-23 00:00:00.0000, -2.813850420441082E+08, -1.616277124168212E+08, 3.085668254207805E+07,
2461708.500000000, A.D. 2027-Oct-30 00:00:00.0000, -2.730955445913445E+08, -1.713625072743204E+08, 3.090632705457519E+07,
2461715.500000000, A.D. 2027-Nov-06 00:00:00.0000, -2.644159553806888E+08, -1.808523943651657E+08, 3.091181366510133E+07,
2461722.500000000, A.D. 2027-Nov-13 00:00:00.0000, -2.553514180787458E+08, -1.900788559618990E+08, 3.087228663895286E+07,
2461729.500000000, A.D. 2027-Nov-20 00:00:00.0000, -2.459080705720215E+08, -1.990232034221081E+08, 3.078695030948387E+07,
2461736.500000000, A.D. 2027-Nov-27 00:00:00.0000, -2.360930891756419E+08, -2.076666358978740E+08, 3.065507593921543E+07,
2461743.500000000, A.D. 2027-Dec-04 00:00:00.0000, -2.259147299792387E+08, -2.159903041707720E+08, 3.047600889340954E+07,
2461750.500000000, A.D. 2027-Dec-11 00:00:00.0000, -2.153823670756271E+08, -2.239753806112999E+08, 3.024917604237808E+07,
2461757.500000000, A.D. 2027-Dec-18 00:00:00.0000, -2.045065265389824E+08, -2.316031355418478E+08, 2.997409327337167E+07,
2461764.500000000, A.D. 2027-Dec-25 00:00:00.0000, -1.932989151040758E+08, -2.388550198370956E+08, 2.965037302206837E+07,
2461771.500000000, A.D. 2028-Jan-01 00:00:00.0000, -1.817724425849916E+08, -2.457127534529250E+08, 2.927773173595288E+07,
$$EOE